FLOCK 4BE-17            
1 60492U 24149AA  26194.20898479  .00009378  00000+0  23302-3 0  9999
2 60492  97.3778 277.7956 0004132 150.9614 209.1863 15.40528128106263
FLOCK 4BE-22            
1 60494U 24149AC  26193.77758920  .00012381  00000+0  29292-3 0  9990
2 60494  97.3736 277.5931 0004562 161.1009 199.0408 15.41936586106241
FLOCK 4BE-34            
1 60495U 24149AD  26193.79509814  .00011602  00000+0  27495-3 0  9997
2 60495  97.3784 278.4489 0004595 167.4136 192.7227 15.41901884106274
FLOCK 4BE-32            
1 60497U 24149AF  26193.81091813  .00014125  00000+0  32184-3 0  9991
2 60497  97.3726 278.0282 0004649 165.6683 194.4697 15.43033516106287
FLOCK 4BE-11            
1 60501U 24149AK  26194.18105799  .00012094  00000+0  26864-3 0  9998
2 60501  97.3701 278.6585 0004852 163.3762 196.7646 15.43831821106360
FLOCK 4BE-24            
1 60505U 24149AP  26194.03542205  .00015728  00000+0  34611-3 0  9999
2 60505  97.3717 278.7781 0004849 176.3510 183.7775 15.44044848106355
FLOCK 4BE-29            
1 60509U 24149AT  26193.76923591  .00036693  00000+0  76848-3 0  9995
2 60509  97.3809 280.0431 0003285 178.7826 181.3431 15.45342130106368
FLOCK 4BE-2             
1 60511U 24149AV  26193.81338125  .00053712  00000+0  77830-3 0  9990
2 60511  97.3839 281.8931 0005084 178.8618 181.2649 15.55688998106486
FLOCK 4BE-13            
1 60512U 24149AW  26194.04436878  .00011128  00000+0  25794-3 0  9998
2 60512  97.3722 278.7358 0004972 162.1707 197.9716 15.42578348106354
FLOCK 4BE-27            
1 60513U 24149AX  26194.01475073  .00006198  00000+0  18554-3 0  9993
2 60513  97.3827 275.8845 0003762 188.8300 171.2878 15.34892241106109
FLOCK 4BE-9             
1 60514U 24149AY  26193.67171821  .00009825  00000+0  23602-3 0  9999
2 60514  97.3800 278.2012 0003562 176.7939 183.3331 15.41542438106247
FLOCK 4BE-6             
1 60516U 24149BA  26194.04594440  .00010658  00000+0  26670-3 0  9993
2 60516  97.3793 277.8889 0004047 178.9597 181.1659 15.40278066106252
FLOCK 4BE-14            
1 60517U 24149BB  26194.19970529  .00010956  00000+0  26051-3 0  9990
2 60517  97.3700 278.2054 0005133 182.8591 177.2628 15.41812912106331
FLOCK 4BE-1             
1 60518U 24149BC  26194.18820874  .00011884  00000+0  26728-3 0  9999
2 60518  97.3784 279.5656 0004832 182.1000 178.0228 15.43464541106382
FLOCK 4BE-28            
1 60519U 24149BD  26193.77384478  .00037733  00000+0  76836-3 0  9995
2 60519  97.3756 279.9525 0004724 182.0589 178.0642 15.46154633106394
FLOCK 4BE-5             
1 60559U 24149CV  26193.74751862  .00011058  00000+0  27018-3 0  9991
2 60559  97.3850 278.0047 0003802 178.8953 181.2302 15.40994442106210
