{"fetched_at":"2026-07-13T18:16:33.418Z","source":"https://celestrak.org/NORAD/elements/gp.php?GROUP=planet&FORMAT=JSON","constellation":"superdove","records":[{"OBJECT_NAME":"FLOCK 4BE-17","OBJECT_ID":"2024-149AA","EPOCH":"2026-07-13T05:00:56.285856","CLASSIFICATION_TYPE":"U","MEAN_MOTION":15.40528128,"ECCENTRICITY":0.00041323,"INCLINATION":97.3778,"RA_OF_ASC_NODE":277.7956,"ARG_OF_PERICENTER":150.9614,"MEAN_ANOMALY":209.1863,"EPHEMERIS_TYPE":0,"NORAD_CAT_ID":60492,"ELEMENT_SET_NO":999,"REV_AT_EPOCH":10626,"BSTAR":0.00023302487,"MEAN_MOTION_DOT":0.00009378,"MEAN_MOTION_DDOT":0},{"OBJECT_NAME":"FLOCK 4BE-22","OBJECT_ID":"2024-149AC","EPOCH":"2026-07-12T18:39:43.706880","CLASSIFICATION_TYPE":"U","MEAN_MOTION":15.41936586,"ECCENTRICITY":0.00045622,"INCLINATION":97.3736,"RA_OF_ASC_NODE":277.5931,"ARG_OF_PERICENTER":161.1009,"MEAN_ANOMALY":199.0408,"EPHEMERIS_TYPE":0,"NORAD_CAT_ID":60494,"ELEMENT_SET_NO":999,"REV_AT_EPOCH":10624,"BSTAR":0.00029292125,"MEAN_MOTION_DOT":0.00012381,"MEAN_MOTION_DDOT":0},{"OBJECT_NAME":"FLOCK 4BE-34","OBJECT_ID":"2024-149AD","EPOCH":"2026-07-12T19:04:56.479296","CLASSIFICATION_TYPE":"U","MEAN_MOTION":15.41901884,"ECCENTRICITY":0.00045952,"INCLINATION":97.3784,"RA_OF_ASC_NODE":278.4489,"ARG_OF_PERICENTER":167.4136,"MEAN_ANOMALY":192.7227,"EPHEMERIS_TYPE":0,"NORAD_CAT_ID":60495,"ELEMENT_SET_NO":999,"REV_AT_EPOCH":10627,"BSTAR":0.00027495246,"MEAN_MOTION_DOT":0.00011602,"MEAN_MOTION_DDOT":0},{"OBJECT_NAME":"FLOCK 4BE-32","OBJECT_ID":"2024-149AF","EPOCH":"2026-07-12T19:27:43.326432","CLASSIFICATION_TYPE":"U","MEAN_MOTION":15.43033516,"ECCENTRICITY":0.00046499,"INCLINATION":97.3726,"RA_OF_ASC_NODE":278.0282,"ARG_OF_PERICENTER":165.6683,"MEAN_ANOMALY":194.4697,"EPHEMERIS_TYPE":0,"NORAD_CAT_ID":60497,"ELEMENT_SET_NO":999,"REV_AT_EPOCH":10628,"BSTAR":0.00032183898,"MEAN_MOTION_DOT":0.00014125,"MEAN_MOTION_DDOT":0},{"OBJECT_NAME":"FLOCK 4BE-11","OBJECT_ID":"2024-149AK","EPOCH":"2026-07-13T04:20:43.410336","CLASSIFICATION_TYPE":"U","MEAN_MOTION":15.43831821,"ECCENTRICITY":0.00048522,"INCLINATION":97.3701,"RA_OF_ASC_NODE":278.6585,"ARG_OF_PERICENTER":163.3762,"MEAN_ANOMALY":196.7646,"EPHEMERIS_TYPE":0,"NORAD_CAT_ID":60501,"ELEMENT_SET_NO":999,"REV_AT_EPOCH":10636,"BSTAR":0.00026863839,"MEAN_MOTION_DOT":0.00012094,"MEAN_MOTION_DDOT":0},{"OBJECT_NAME":"FLOCK 4BE-24","OBJECT_ID":"2024-149AP","EPOCH":"2026-07-13T00:51:00.465120","CLASSIFICATION_TYPE":"U","MEAN_MOTION":15.44044848,"ECCENTRICITY":0.00048496,"INCLINATION":97.3717,"RA_OF_ASC_NODE":278.7781,"ARG_OF_PERICENTER":176.351,"MEAN_ANOMALY":183.7775,"EPHEMERIS_TYPE":0,"NORAD_CAT_ID":60505,"ELEMENT_SET_NO":999,"REV_AT_EPOCH":10635,"BSTAR":0.0003461094,"MEAN_MOTION_DOT":0.00015728,"MEAN_MOTION_DDOT":0},{"OBJECT_NAME":"FLOCK 4BE-29","OBJECT_ID":"2024-149AT","EPOCH":"2026-07-12T18:27:41.982624","CLASSIFICATION_TYPE":"U","MEAN_MOTION":15.4534213,"ECCENTRICITY":0.00032856,"INCLINATION":97.3809,"RA_OF_ASC_NODE":280.0431,"ARG_OF_PERICENTER":178.7826,"MEAN_ANOMALY":181.3431,"EPHEMERIS_TYPE":0,"NORAD_CAT_ID":60509,"ELEMENT_SET_NO":999,"REV_AT_EPOCH":10636,"BSTAR":0.00076848215,"MEAN_MOTION_DOT":0.00036693,"MEAN_MOTION_DDOT":0},{"OBJECT_NAME":"FLOCK 4BE-2","OBJECT_ID":"2024-149AV","EPOCH":"2026-07-12T19:31:16.140000","CLASSIFICATION_TYPE":"U","MEAN_MOTION":15.55688998,"ECCENTRICITY":0.00050846,"INCLINATION":97.3839,"RA_OF_ASC_NODE":281.8931,"ARG_OF_PERICENTER":178.8618,"MEAN_ANOMALY":181.2649,"EPHEMERIS_TYPE":0,"NORAD_CAT_ID":60511,"ELEMENT_SET_NO":999,"REV_AT_EPOCH":10648,"BSTAR":0.00077829676,"MEAN_MOTION_DOT":0.00053712,"MEAN_MOTION_DDOT":0},{"OBJECT_NAME":"FLOCK 4BE-13","OBJECT_ID":"2024-149AW","EPOCH":"2026-07-13T01:03:53.462592","CLASSIFICATION_TYPE":"U","MEAN_MOTION":15.42578348,"ECCENTRICITY":0.00049721,"INCLINATION":97.3722,"RA_OF_ASC_NODE":278.7358,"ARG_OF_PERICENTER":162.1707,"MEAN_ANOMALY":197.9716,"EPHEMERIS_TYPE":0,"NORAD_CAT_ID":60512,"ELEMENT_SET_NO":999,"REV_AT_EPOCH":10635,"BSTAR":0.00025793961,"MEAN_MOTION_DOT":0.00011128,"MEAN_MOTION_DDOT":0},{"OBJECT_NAME":"FLOCK 4BE-27","OBJECT_ID":"2024-149AX","EPOCH":"2026-07-13T00:21:14.463072","CLASSIFICATION_TYPE":"U","MEAN_MOTION":15.34892241,"ECCENTRICITY":0.00037625,"INCLINATION":97.3827,"RA_OF_ASC_NODE":275.8845,"ARG_OF_PERICENTER":188.83,"MEAN_ANOMALY":171.2878,"EPHEMERIS_TYPE":0,"NORAD_CAT_ID":60513,"ELEMENT_SET_NO":999,"REV_AT_EPOCH":10610,"BSTAR":0.00018553534,"MEAN_MOTION_DOT":0.00006198,"MEAN_MOTION_DDOT":0},{"OBJECT_NAME":"FLOCK 4BE-9","OBJECT_ID":"2024-149AY","EPOCH":"2026-07-12T16:07:16.453344","CLASSIFICATION_TYPE":"U","MEAN_MOTION":15.41542438,"ECCENTRICITY":0.00035629,"INCLINATION":97.38,"RA_OF_ASC_NODE":278.2012,"ARG_OF_PERICENTER":176.7939,"MEAN_ANOMALY":183.3331,"EPHEMERIS_TYPE":0,"NORAD_CAT_ID":60514,"ELEMENT_SET_NO":999,"REV_AT_EPOCH":10624,"BSTAR":0.00023601759,"MEAN_MOTION_DOT":0.00009825,"MEAN_MOTION_DDOT":0},{"OBJECT_NAME":"FLOCK 4BE-6","OBJECT_ID":"2024-149BA","EPOCH":"2026-07-13T01:06:09.596160","CLASSIFICATION_TYPE":"U","MEAN_MOTION":15.40278066,"ECCENTRICITY":0.00040477,"INCLINATION":97.3793,"RA_OF_ASC_NODE":277.8889,"ARG_OF_PERICENTER":178.9597,"MEAN_ANOMALY":181.1659,"EPHEMERIS_TYPE":0,"NORAD_CAT_ID":60516,"ELEMENT_SET_NO":999,"REV_AT_EPOCH":10625,"BSTAR":0.00026669905,"MEAN_MOTION_DOT":0.00010658,"MEAN_MOTION_DDOT":0},{"OBJECT_NAME":"FLOCK 4BE-14","OBJECT_ID":"2024-149BB","EPOCH":"2026-07-13T04:47:34.537056","CLASSIFICATION_TYPE":"U","MEAN_MOTION":15.41812912,"ECCENTRICITY":0.00051334,"INCLINATION":97.37,"RA_OF_ASC_NODE":278.2054,"ARG_OF_PERICENTER":182.8591,"MEAN_ANOMALY":177.2628,"EPHEMERIS_TYPE":0,"NORAD_CAT_ID":60517,"ELEMENT_SET_NO":999,"REV_AT_EPOCH":10633,"BSTAR":0.00026050959,"MEAN_MOTION_DOT":0.00010956,"MEAN_MOTION_DDOT":0},{"OBJECT_NAME":"FLOCK 4BE-1","OBJECT_ID":"2024-149BC","EPOCH":"2026-07-13T04:31:01.235136","CLASSIFICATION_TYPE":"U","MEAN_MOTION":15.43464541,"ECCENTRICITY":0.00048322,"INCLINATION":97.3784,"RA_OF_ASC_NODE":279.5656,"ARG_OF_PERICENTER":182.1,"MEAN_ANOMALY":178.0228,"EPHEMERIS_TYPE":0,"NORAD_CAT_ID":60518,"ELEMENT_SET_NO":999,"REV_AT_EPOCH":10638,"BSTAR":0.00026728305,"MEAN_MOTION_DOT":0.00011884,"MEAN_MOTION_DDOT":0},{"OBJECT_NAME":"FLOCK 4BE-28","OBJECT_ID":"2024-149BD","EPOCH":"2026-07-12T18:34:20.188992","CLASSIFICATION_TYPE":"U","MEAN_MOTION":15.46154633,"ECCENTRICITY":0.00047246,"INCLINATION":97.3756,"RA_OF_ASC_NODE":279.9525,"ARG_OF_PERICENTER":182.0589,"MEAN_ANOMALY":178.0642,"EPHEMERIS_TYPE":0,"NORAD_CAT_ID":60519,"ELEMENT_SET_NO":999,"REV_AT_EPOCH":10639,"BSTAR":0.0007683614,"MEAN_MOTION_DOT":0.00037733,"MEAN_MOTION_DDOT":0},{"OBJECT_NAME":"FLOCK 4BE-5","OBJECT_ID":"2024-149CV","EPOCH":"2026-07-12T17:56:25.608768","CLASSIFICATION_TYPE":"U","MEAN_MOTION":15.40994442,"ECCENTRICITY":0.00038029,"INCLINATION":97.385,"RA_OF_ASC_NODE":278.0047,"ARG_OF_PERICENTER":178.8953,"MEAN_ANOMALY":181.2302,"EPHEMERIS_TYPE":0,"NORAD_CAT_ID":60559,"ELEMENT_SET_NO":999,"REV_AT_EPOCH":10621,"BSTAR":0.00027018362,"MEAN_MOTION_DOT":0.00011058,"MEAN_MOTION_DDOT":0}]}
